{
  "type": "FeatureCollection",
  "features": [
    {
      "type": "Feature",
      "properties": {
        "norad_id": 38091,
        "name": "BEIDOU-2 G5 (C05)",
        "group": "gnss",
        "lat": 1.6559521309917213,
        "lon": 102.05109155720301,
        "alt_km": 35838.6424696784,
        "timestamp": "2025-12-23T20:42:37.317105+00:00",
        "meta_object_name": "BEIDOU-2 G5 (C05)",
        "meta_object_id": "2012-008A",
        "meta_epoch": "2025-12-23T03:08:21.323904",
        "meta_mean_motion": 1.00269239,
        "meta_eccentricity": 0.0013154,
        "meta_inclination": 3.1332,
        "meta_ra_of_asc_node": 70.6743,
        "meta_arg_of_pericenter": 232.0278,
        "meta_mean_anomaly": 255.0578,
        "meta_ephemeris_type": 0,
        "meta_classification_type": "U",
        "meta_norad_cat_id": 38091,
        "meta_element_set_no": 999,
        "meta_rev_at_epoch": 5060,
        "meta_bstar": 0,
        "meta_mean_motion_dot": 7.7e-07,
        "meta_mean_motion_ddot": 0,
        "tle_line1": "1 38091U 12008A   25357.13080236  .00000077  00000+0  00000+0 0  9999",
        "tle_line2": "2 38091   3.1332  70.6743 0013154 232.0278 255.0578  1.00269239 50605"
      },
      "geometry": {
        "type": "Point",
        "coordinates": [
          102.05109155720301,
          1.6559521309917213
        ]
      }
    },
    {
      "type": "Feature",
      "properties": {
        "norad_id": 38250,
        "name": "BEIDOU-2 M3 (C11)",
        "group": "gnss",
        "lat": 5.352128762623112,
        "lon": 127.13038246687387,
        "alt_km": 21541.51209966109,
        "timestamp": "2025-12-23T20:42:37.317117+00:00",
        "meta_object_name": "BEIDOU-2 M3 (C11)",
        "meta_object_id": "2012-018A",
        "meta_epoch": "2025-12-23T01:35:36.846816",
        "meta_mean_motion": 1.86230199,
        "meta_eccentricity": 0.00241034,
        "meta_inclination": 55.9114,
        "meta_ra_of_asc_node": 310.8107,
        "meta_arg_of_pericenter": 275.3309,
        "meta_mean_anomaly": 84.3935,
        "meta_ephemeris_type": 0,
        "meta_classification_type": "U",
        "meta_norad_cat_id": 38250,
        "meta_element_set_no": 999,
        "meta_rev_at_epoch": 9266,
        "meta_bstar": 0,
        "meta_mean_motion_dot": -5.5e-07,
        "meta_mean_motion_ddot": 0,
        "tle_line1": "1 38250U 12018A   25357.06639869 -.00000055  00000+0  00000+0 0  9998",
        "tle_line2": "2 38250  55.9114 310.8107 0024103 275.3309  84.3935  1.86230199 92668"
      },
      "geometry": {
        "type": "Point",
        "coordinates": [
          127.13038246687387,
          5.352128762623112
        ]
      }
    },
    {
      "type": "Feature",
      "properties": {
        "norad_id": 38251,
        "name": "BEIDOU-2 M4 (C12)",
        "group": "gnss",
        "lat": -31.596445349439605,
        "lon": 154.6807426363351,
        "alt_km": 21510.845778359704,
        "timestamp": "2025-12-23T20:42:37.317128+00:00",
        "meta_object_name": "BEIDOU-2 M4 (C12)",
        "meta_object_id": "2012-018B",
        "meta_epoch": "2025-12-21T22:11:20.549760",
        "meta_mean_motion": 1.86229896,
        "meta_eccentricity": 0.00152556,
        "meta_inclination": 55.8135,
        "meta_ra_of_asc_node": 310.0771,
        "meta_arg_of_pericenter": 279.1681,
        "meta_mean_anomaly": 80.6551,
        "meta_ephemeris_type": 0,
        "meta_classification_type": "U",
        "meta_norad_cat_id": 38251,
        "meta_element_set_no": 999,
        "meta_rev_at_epoch": 9264,
        "meta_bstar": 0,
        "meta_mean_motion_dot": -6e-07,
        "meta_mean_motion_ddot": 0,
        "tle_line1": "1 38251U 12018B   25355.92454340 -.00000060  00000+0  00000+0 0  9997",
        "tle_line2": "2 38251  55.8135 310.0771 0015255 279.1681  80.6551  1.86229896 92646"
      },
      "geometry": {
        "type": "Point",
        "coordinates": [
          154.6807426363351,
          -31.596445349439605
        ]
      }
    },
    {
      "type": "Feature",
      "properties": {
        "norad_id": 38652,
        "name": "SES-5 (EGNOS/PRN 136)",
        "group": "gnss",
        "lat": 0.06817317669947207,
        "lon": 48.29910629709439,
        "alt_km": 35791.476414102675,
        "timestamp": "2025-12-23T20:42:37.317141+00:00",
        "meta_object_name": "SES-5 (EGNOS/PRN 136)",
        "meta_object_id": "2012-036A",
        "meta_epoch": "2025-12-23T01:10:21.285408",
        "meta_mean_motion": 1.00272166,
        "meta_eccentricity": 0.00018817,
        "meta_inclination": 0.0604,
        "meta_ra_of_asc_node": 303.4914,
        "meta_arg_of_pericenter": 330.5025,
        "meta_mean_anomaly": 200.4256,
        "meta_ephemeris_type": 0,
        "meta_classification_type": "U",
        "meta_norad_cat_id": 38652,
        "meta_element_set_no": 999,
        "meta_rev_at_epoch": 4269,
        "meta_bstar": 0,
        "meta_mean_motion_dot": 5.5e-07,
        "meta_mean_motion_ddot": 0,
        "tle_line1": "1 38652U 12036A   25357.04885747  .00000055  00000+0  00000+0 0  9999",
        "tle_line2": "2 38652   0.0604 303.4914 0001881 330.5025 200.4256  1.00272166 42691"
      },
      "geometry": {
        "type": "Point",
        "coordinates": [
          48.29910629709439,
          0.06817317669947207
        ]
      }
    },
    {
      "type": "Feature",
      "properties": {
        "norad_id": 38775,
        "name": "BEIDOU-2 M6 (C14)",
        "group": "gnss",
        "lat": 42.05057130194993,
        "lon": 105.52752283845479,
        "alt_km": 21512.19698489886,
        "timestamp": "2025-12-23T20:42:37.317156+00:00",
        "meta_object_name": "BEIDOU-2 M6 (C14)",
        "meta_object_id": "2012-050B",
        "meta_epoch": "2025-12-23T05:54:39.234816",
        "meta_mean_motion": 1.86230862,
        "meta_eccentricity": 0.00114449,
        "meta_inclination": 56.3871,
        "meta_ra_of_asc_node": 68.7189,
        "meta_arg_of_pericenter": 343.1863,
        "meta_mean_anomaly": 16.829,
        "meta_ephemeris_type": 0,
        "meta_classification_type": "U",
        "meta_norad_cat_id": 38775,
        "meta_element_set_no": 999,
        "meta_rev_at_epoch": 9003,
        "meta_bstar": 0,
        "meta_mean_motion_dot": -2.5e-07,
        "meta_mean_motion_ddot": 0,
        "tle_line1": "1 38775U 12050B   25357.24628744 -.00000025  00000+0  00000+0 0  9993",
        "tle_line2": "2 38775  56.3871  68.7189 0011444 343.1863  16.8290  1.86230862 90037"
      },
      "geometry": {
        "type": "Point",
        "coordinates": [
          105.52752283845479,
          42.05057130194993
        ]
      }
    },
    {
      "type": "Feature",
      "properties": {
        "norad_id": 38779,
        "name": "GSAT-10 (GAGAN/PRN 128)",
        "group": "gnss",
        "lat": -0.019532481763752677,
        "lon": 126.3297378210092,
        "alt_km": 35776.43670524735,
        "timestamp": "2025-12-23T20:42:37.317170+00:00",
        "meta_object_name": "GSAT-10 (GAGAN/PRN 128)",
        "meta_object_id": "2012-051B",
        "meta_epoch": "2025-12-23T03:15:20.655072",
        "meta_mean_motion": 1.00271588,
        "meta_eccentricity": 0.0002308,
        "meta_inclination": 0.067,
        "meta_ra_of_asc_node": 263.271,
        "meta_arg_of_pericenter": 219.6563,
        "meta_mean_anomaly": 100.8716,
        "meta_ephemeris_type": 0,
        "meta_classification_type": "U",
        "meta_norad_cat_id": 38779,
        "meta_element_set_no": 999,
        "meta_rev_at_epoch": 4833,
        "meta_bstar": 0,
        "meta_mean_motion_dot": -1.44e-06,
        "meta_mean_motion_ddot": 0,
        "tle_line1": "1 38779U 12051B   25357.13565573 -.00000144  00000+0  00000+0 0  9998",
        "tle_line2": "2 38779   0.0670 263.2710 0002308 219.6563 100.8716  1.00271588 48338"
      },
      "geometry": {
        "type": "Point",
        "coordinates": [
          126.3297378210092,
          -0.019532481763752677
        ]
      }
    },
    {
      "type": "Feature",
      "properties": {
        "norad_id": 38833,
        "name": "GPS BIIF-3  (PRN 24)",
        "group": "gnss",
        "lat": 25.183979157896353,
        "lon": 171.09905929812373,
        "alt_km": 19781.498925796182,
        "timestamp": "2025-12-23T20:42:37.317183+00:00",
        "meta_object_name": "GPS BIIF-3  (PRN 24)",
        "meta_object_id": "2012-053A",
        "meta_epoch": "2025-12-22T07:46:34.286880",
        "meta_mean_motion": 2.0056507,
        "meta_eccentricity": 0.0176029,
        "meta_inclination": 53.5595,
        "meta_ra_of_asc_node": 150.8462,
        "meta_arg_of_pericenter": 64.1364,
        "meta_mean_anomaly": 297.6424,
        "meta_ephemeris_type": 0,
        "meta_classification_type": "U",
        "meta_norad_cat_id": 38833,
        "meta_element_set_no": 999,
        "meta_rev_at_epoch": 9589,
        "meta_bstar": 0,
        "meta_mean_motion_dot": 6.6e-07,
        "meta_mean_motion_ddot": 0,
        "tle_line1": "1 38833U 12053A   25356.32400795  .00000066  00000+0  00000+0 0  9997",
        "tle_line2": "2 38833  53.5595 150.8462 0176029  64.1364 297.6424  2.00565070 95894"
      },
      "geometry": {
        "type": "Point",
        "coordinates": [
          171.09905929812373,
          25.183979157896353
        ]
      }
    }
  ]
}